[{"OBJECT_NAME":"IRIDIUM 151","OBJECT_ID":"2017-083E","EPOCH":"2026-03-02T18:15:43.168320","MEAN_MOTION":14.3421799,"ECCENTRICITY":0.0002163,"INCLINATION":86.4014,"RA_OF_ASC_NODE":6.5288,"ARG_OF_PERICENTER":87.1627,"MEAN_ANOMALY":272.9816,"EPHEMERIS_TYPE":0,"CLASSIFICATION_TYPE":"U","NORAD_CAT_ID":43074,"ELEMENT_SET_NO":999,"REV_AT_EPOCH":42888,"BSTAR":1.5359e-5,"MEAN_MOTION_DOT":6.3e-7,"MEAN_MOTION_DDOT":0},{"OBJECT_NAME":"IRIDIUM 134","OBJECT_ID":"2017-083F","EPOCH":"2026-03-02T19:10:31.153152","MEAN_MOTION":14.34217774,"ECCENTRICITY":0.0002027,"INCLINATION":86.4019,"RA_OF_ASC_NODE":6.5196,"ARG_OF_PERICENTER":85.1165,"MEAN_ANOMALY":275.0262,"EPHEMERIS_TYPE":0,"CLASSIFICATION_TYPE":"U","NORAD_CAT_ID":43075,"ELEMENT_SET_NO":999,"REV_AT_EPOCH":42885,"BSTAR":5.1111e-6,"MEAN_MOTION_DOT":3.4e-7,"MEAN_MOTION_DDOT":0},{"OBJECT_NAME":"IRIDIUM 137","OBJECT_ID":"2017-083G","EPOCH":"2026-03-02T19:28:47.162208","MEAN_MOTION":14.34218008,"ECCENTRICITY":0.0002289,"INCLINATION":86.4019,"RA_OF_ASC_NODE":6.6045,"ARG_OF_PERICENTER":97.1451,"MEAN_ANOMALY":263.0005,"EPHEMERIS_TYPE":0,"CLASSIFICATION_TYPE":"U","NORAD_CAT_ID":43076,"ELEMENT_SET_NO":999,"REV_AT_EPOCH":42892,"BSTAR":1.0728e-5,"MEAN_MOTION_DOT":5.0e-7,"MEAN_MOTION_DDOT":0},{"OBJECT_NAME":"IRIDIUM 141","OBJECT_ID":"2017-083H","EPOCH":"2026-03-02T19:19:40.297728","MEAN_MOTION":14.34219765,"ECCENTRICITY":0.0002252,"INCLINATION":86.4014,"RA_OF_ASC_NODE":6.4442,"ARG_OF_PERICENTER":83.0293,"MEAN_ANOMALY":277.1159,"EPHEMERIS_TYPE":0,"CLASSIFICATION_TYPE":"U","NORAD_CAT_ID":43077,"ELEMENT_SET_NO":999,"REV_AT_EPOCH":42892,"BSTAR":0.00011351,"MEAN_MOTION_DOT":3.38e-6,"MEAN_MOTION_DDOT":0},{"OBJECT_NAME":"IRIDIUM 153","OBJECT_ID":"2017-083J","EPOCH":"2026-03-02T18:10:47.428032","MEAN_MOTION":14.34217889,"ECCENTRICITY":0.0002174,"INCLINATION":86.4015,"RA_OF_ASC_NODE":334.9779,"ARG_OF_PERICENTER":77.6904,"MEAN_ANOMALY":282.4535,"EPHEMERIS_TYPE":0,"CLASSIFICATION_TYPE":"U","NORAD_CAT_ID":43078,"ELEMENT_SET_NO":999,"REV_AT_EPOCH":43002,"BSTAR":1.5508e-5,"MEAN_MOTION_DOT":6.3e-7,"MEAN_MOTION_DDOT":0},{"OBJECT_NAME":"IRIDIUM 131","OBJECT_ID":"2017-083K","EPOCH":"2026-03-02T19:01:23.130048","MEAN_MOTION":14.34216335,"ECCENTRICITY":0.0002331,"INCLINATION":86.4019,"RA_OF_ASC_NODE":6.6284,"ARG_OF_PERICENTER":85.4327,"MEAN_ANOMALY":274.7135,"EPHEMERIS_TYPE":0,"CLASSIFICATION_TYPE":"U","NORAD_CAT_ID":43079,"ELEMENT_SET_NO":999,"REV_AT_EPOCH":42885,"BSTAR":0.00011054,"MEAN_MOTION_DOT":3.29e-6,"MEAN_MOTION_DDOT":0},{"OBJECT_NAME":"IRIDIUM 144","OBJECT_ID":"2018-030A","EPOCH":"2026-03-02T18:19:55.411392","MEAN_MOTION":14.34217364,"ECCENTRICITY":0.0001941,"INCLINATION":86.401,"RA_OF_ASC_NODE":334.907,"ARG_OF_PERICENTER":86.5176,"MEAN_ANOMALY":273.6242,"EPHEMERIS_TYPE":0,"CLASSIFICATION_TYPE":"U","NORAD_CAT_ID":43249,"ELEMENT_SET_NO":999,"REV_AT_EPOCH":41488,"BSTAR":-2.6465e-5,"MEAN_MOTION_DOT":-5.4e-7,"MEAN_MOTION_DDOT":0},{"OBJECT_NAME":"IRIDIUM 149","OBJECT_ID":"2018-030B","EPOCH":"2026-03-02T18:29:03.404256","MEAN_MOTION":14.34218298,"ECCENTRICITY":0.0002173,"INCLINATION":86.4016,"RA_OF_ASC_NODE":334.8725,"ARG_OF_PERICENTER":83.307,"MEAN_ANOMALY":276.8373,"EPHEMERIS_TYPE":0,"CLASSIFICATION_TYPE":"U","NORAD_CAT_ID":43250,"ELEMENT_SET_NO":999,"REV_AT_EPOCH":41490,"BSTAR":5.6394e-5,"MEAN_MOTION_DOT":1.78e-6,"MEAN_MOTION_DDOT":0},{"OBJECT_NAME":"IRIDIUM 157","OBJECT_ID":"2018-030C","EPOCH":"2026-03-02T18:56:27.385440","MEAN_MOTION":14.34218241,"ECCENTRICITY":0.000216,"INCLINATION":86.4016,"RA_OF_ASC_NODE":334.9156,"ARG_OF_PERICENTER":85.0187,"MEAN_ANOMALY":275.1255,"EPHEMERIS_TYPE":0,"CLASSIFICATION_TYPE":"U","NORAD_CAT_ID":43251,"ELEMENT_SET_NO":999,"REV_AT_EPOCH":41488,"BSTAR":3.7592e-5,"MEAN_MOTION_DOT":1.25e-6,"MEAN_MOTION_DDOT":0},{"OBJECT_NAME":"IRIDIUM 140","OBJECT_ID":"2018-030D","EPOCH":"2026-03-02T19:23:51.410688","MEAN_MOTION":14.34217693,"ECCENTRICITY":0.0002054,"INCLINATION":86.4015,"RA_OF_ASC_NODE":334.9204,"ARG_OF_PERICENTER":83.3465,"MEAN_ANOMALY":276.7965,"EPHEMERIS_TYPE":0,"CLASSIFICATION_TYPE":"U","NORAD_CAT_ID":43252,"ELEMENT_SET_NO":999,"REV_AT_EPOCH":41494,"BSTAR":1.4992e-6,"MEAN_MOTION_DOT":2.4e-7,"MEAN_MOTION_DDOT":0},{"OBJECT_NAME":"IRIDIUM 145","OBJECT_ID":"2018-030E","EPOCH":"2026-03-02T19:05:35.321280","MEAN_MOTION":14.34218134,"ECCENTRICITY":0.0001864,"INCLINATION":86.4016,"RA_OF_ASC_NODE":334.8982,"ARG_OF_PERICENTER":92.4949,"MEAN_ANOMALY":267.6461,"EPHEMERIS_TYPE":0,"CLASSIFICATION_TYPE":"U","NORAD_CAT_ID":43253,"ELEMENT_SET_NO":999,"REV_AT_EPOCH":41487,"BSTAR":6.1332e-5,"MEAN_MOTION_DOT":1.92e-6,"MEAN_MOTION_DDOT":0},{"OBJECT_NAME":"IRIDIUM 146","OBJECT_ID":"2018-030F","EPOCH":"2026-03-02T18:38:11.370336","MEAN_MOTION":14.34218836,"ECCENTRICITY":0.0002086,"INCLINATION":86.4015,"RA_OF_ASC_NODE":334.9186,"ARG_OF_PERICENTER":88.973,"MEAN_ANOMALY":271.1705,"EPHEMERIS_TYPE":0,"CLASSIFICATION_TYPE":"U","NORAD_CAT_ID":43254,"ELEMENT_SET_NO":999,"REV_AT_EPOCH":41488,"BSTAR":0.00011732,"MEAN_MOTION_DOT":3.48e-6,"MEAN_MOTION_DDOT":0},{"OBJECT_NAME":"IRIDIUM 148","OBJECT_ID":"2018-030G","EPOCH":"2026-03-02T19:32:59.364672","MEAN_MOTION":14.34218941,"ECCENTRICITY":0.000215,"INCLINATION":86.4016,"RA_OF_ASC_NODE":334.9441,"ARG_OF_PERICENTER":86.3415,"MEAN_ANOMALY":273.8026,"EPHEMERIS_TYPE":0,"CLASSIFICATION_TYPE":"U","NORAD_CAT_ID":43255,"ELEMENT_SET_NO":999,"REV_AT_EPOCH":41492,"BSTAR":9.1065e-5,"MEAN_MOTION_DOT":2.75e-6,"MEAN_MOTION_DDOT":0},{"OBJECT_NAME":"IRIDIUM 142","OBJECT_ID":"2018-030H","EPOCH":"2026-03-02T18:47:19.345056","MEAN_MOTION":14.34218101,"ECCENTRICITY":0.0001881,"INCLINATION":86.4014,"RA_OF_ASC_NODE":334.8504,"ARG_OF_PERICENTER":91.7758,"MEAN_ANOMALY":268.3653,"EPHEMERIS_TYPE":0,"CLASSIFICATION_TYPE":"U","NORAD_CAT_ID":43256,"ELEMENT_SET_NO":999,"REV_AT_EPOCH":41488,"BSTAR":2.185e-5,"MEAN_MOTION_DOT":8.1e-7,"MEAN_MOTION_DDOT":0},{"OBJECT_NAME":"IRIDIUM 150","OBJECT_ID":"2018-030J","EPOCH":"2026-03-02T16:21:11.329632","MEAN_MOTION":14.34215951,"ECCENTRICITY":0.000202,"INCLINATION":86.4021,"RA_OF_ASC_NODE":335.0057,"ARG_OF_PERICENTER":84.6871,"MEAN_ANOMALY":275.4555,"EPHEMERIS_TYPE":0,"CLASSIFICATION_TYPE":"U","NORAD_CAT_ID":43257,"ELEMENT_SET_NO":999,"REV_AT_EPOCH":41489,"BSTAR":-9.1247e-5,"MEAN_MOTION_DOT":-2.36e-6,"MEAN_MOTION_DDOT":0},{"OBJECT_NAME":"IRIDIUM 143","OBJECT_ID":"2018-030K","EPOCH":"2026-03-02T19:14:43.367712","MEAN_MOTION":14.3421836,"ECCENTRICITY":0.0001991,"INCLINATION":86.4018,"RA_OF_ASC_NODE":335.0434,"ARG_OF_PERICENTER":88.3328,"MEAN_ANOMALY":271.8096,"EPHEMERIS_TYPE":0,"CLASSIFICATION_TYPE":"U","NORAD_CAT_ID":43258,"ELEMENT_SET_NO":999,"REV_AT_EPOCH":41484,"BSTAR":3.8136e-5,"MEAN_MOTION_DOT":1.27e-6,"MEAN_MOTION_DDOT":0},{"OBJECT_NAME":"IRIDIUM 161","OBJECT_ID":"2018-047C","EPOCH":"2026-03-02T17:54:28.160928","MEAN_MOTION":14.43282298,"ECCENTRICITY":0.000254,"INCLINATION":86.4514,"RA_OF_ASC_NODE":132.9839,"ARG_OF_PERICENTER":93.1381,"MEAN_ANOMALY":267.0111,"EPHEMERIS_TYPE":0,"CLASSIFICATION_TYPE":"U","NORAD_CAT_ID":43478,"ELEMENT_SET_NO":999,"REV_AT_EPOCH":40978,"BSTAR":0.00010694,"MEAN_MOTION_DOT":3.8e-6,"MEAN_MOTION_DDOT":0}]
