IRIDIUM 151             
1 43074U 17083E   26061.76091630  .00000063  00000+0  15359-4 0  9999
2 43074  86.4014   6.5288 0002163  87.1627 272.9816 14.34217990428880
IRIDIUM 134             
1 43075U 17083F   26061.79897168  .00000034  00000+0  51111-5 0  9998
2 43075  86.4019   6.5196 0002027  85.1165 275.0262 14.34217774428854
IRIDIUM 137             
1 43076U 17083G   26061.81165697  .00000050  00000+0  10728-4 0  9993
2 43076  86.4019   6.6045 0002289  97.1451 263.0005 14.34218008428921
IRIDIUM 141             
1 43077U 17083H   26061.80532752  .00000338  00000+0  11351-3 0  9994
2 43077  86.4014   6.4442 0002252  83.0293 277.1159 14.34219765428921
IRIDIUM 153             
1 43078U 17083J   26061.75749338  .00000063  00000+0  15508-4 0  9993
2 43078  86.4015 334.9779 0002174  77.6904 282.4535 14.34217889430022
IRIDIUM 131             
1 43079U 17083K   26061.79262882  .00000329  00000+0  11054-3 0  9998
2 43079  86.4019   6.6284 0002331  85.4327 274.7135 14.34216335428855
IRIDIUM 144             
1 43249U 18030A   26061.76383578 -.00000054  00000+0 -26465-4 0  9993
2 43249  86.4010 334.9070 0001941  86.5176 273.6242 14.34217364414883
IRIDIUM 149             
1 43250U 18030B   26061.77017829  .00000178  00000+0  56394-4 0  9998
2 43250  86.4016 334.8725 0002173  83.3070 276.8373 14.34218298414903
IRIDIUM 157             
1 43251U 18030C   26061.78920585  .00000125  00000+0  37592-4 0  9993
2 43251  86.4016 334.9156 0002160  85.0187 275.1255 14.34218241414883
IRIDIUM 140             
1 43252U 18030D   26061.80823392  .00000024  00000+0  14992-5 0  9993
2 43252  86.4015 334.9204 0002054  83.3465 276.7965 14.34217693414941
IRIDIUM 145             
1 43253U 18030E   26061.79554770  .00000192  00000+0  61332-4 0  9998
2 43253  86.4016 334.8982 0001864  92.4949 267.6461 14.34218134414874
IRIDIUM 146             
1 43254U 18030F   26061.77652049  .00000348  00000+0  11732-3 0  9996
2 43254  86.4015 334.9186 0002086  88.9730 271.1705 14.34218836414887
IRIDIUM 148             
1 43255U 18030G   26061.81457598  .00000275  00000+0  91065-4 0  9991
2 43255  86.4016 334.9441 0002150  86.3415 273.8026 14.34218941414924
IRIDIUM 142             
1 43256U 18030H   26061.78286279  .00000081  00000+0  21850-4 0  9994
2 43256  86.4014 334.8504 0001881  91.7758 268.3653 14.34218101414880
IRIDIUM 150             
1 43257U 18030J   26061.68138113 -.00000236  00000+0 -91247-4 0  9998
2 43257  86.4021 335.0057 0002020  84.6871 275.4555 14.34215951414899
IRIDIUM 143             
1 43258U 18030K   26061.80189083  .00000127  00000+0  38136-4 0  9990
2 43258  86.4018 335.0434 0001991  88.3328 271.8096 14.34218360414841
IRIDIUM 161             
1 43478U 18047C   26061.74615927  .00000380  00000+0  10694-3 0  9995
2 43478  86.4514 132.9839 0002540  93.1381 267.0111 14.43282298409786
